H1 CPF 01  gfz 2021 10 27 00  8001 tandemx   
H2 1003001  6202 36605    2021 10 27 00 59 42 2021 11 01 00 00 42   120 1 1  0 0 0
H9
10 0 59514  86382.000000  0    -890879.647    924225.533   6757001.024
10 0 59515    102.000000  0    -858255.754   1826094.161   6575660.757
10 0 59515    222.000000  0    -795158.015   2695259.113   6278758.684
10 0 59515    342.000000  0    -703393.731   3516023.380   5871483.438
10 0 59515    462.000000  0    -585537.479   4273561.389   5360959.806
10 0 59515    582.000000  0    -444869.576   4954190.556   4756129.976
10 0 59515    702.000000  0    -285297.756   5545626.428   4067603.029
10 0 59515    822.000000  0    -111262.492   6037211.782   3307471.241
10 0 59515    942.000000  0      72369.862   6420118.596   2489103.242
10 0 59515   1062.000000  0     260426.146   6687521.086   1626905.336
10 0 59515   1182.000000  0     447555.220   6834723.457    736061.572
10 0 59515   1302.000000  0     628361.755   6859247.589   -167740.034
10 0 59515   1422.000000  0     797542.266   6760876.513  -1068592.516
10 0 59515   1542.000000  0     950018.423   6541651.302  -1950658.706
10 0 59515   1662.000000  0    1081064.763   6205823.651  -2798456.736
10 0 59515   1782.000000  0    1186428.559   5759765.001  -3597137.009
10 0 59515   1902.000000  0    1262438.926   5211834.704  -4332744.691
10 0 59515   2022.000000  0    1306102.299   4572210.962  -4992462.313
10 0 59515   2142.000000  0    1315182.133   3852689.638  -5564827.319
10 0 59515   2262.000000  0    1288260.987   3066457.630  -6039922.720
10 0 59515   2382.000000  0    1224784.259   2227843.938  -6409538.686
10 0 59515   2502.000000  0    1125084.712   1352055.659  -6667301.845
10 0 59515   2622.000000  0     990388.161    454904.118  -6808775.251
10 0 59515   2742.000000  0     822799.948   -447476.884  -6831526.834
10 0 59515   2862.000000  0     625272.288  -1338915.573  -6735165.691
10 0 59515   2982.000000  0     401553.323  -2203483.963  -6521346.550
10 0 59515   3102.000000  0     156119.003  -3025774.280  -6193745.877
10 0 59515   3222.000000  0    -105913.064  -3791170.424  -5758006.938
10 0 59515   3342.000000  0    -378884.888  -4486106.293  -5221651.388
10 0 59515   3462.000000  0    -656713.440  -5098308.433  -4593961.233
10 0 59515   3582.000000  0    -933019.188  -5617019.399  -3885829.650
10 0 59515   3702.000000  0   -1201265.008  -6033196.458  -3109581.409
10 0 59515   3822.000000  0   -1454902.351  -6339680.652  -2278765.387
10 0 59515   3942.000000  0   -1687521.884  -6531332.936  -1407921.862
10 0 59515   4062.000000  0   -1893004.624  -6605132.726   -512327.066
10 0 59515   4182.000000  0   -2065669.847  -6560234.866    392279.471
10 0 59515   4302.000000  0   -2200416.297  -6397982.977   1289978.753
10 0 59515   4422.000000  0   -2292852.616  -6121878.573   2164961.280
10 0 59515   4542.000000  0   -2339413.369  -5737506.287   3001814.794
10 0 59515   4662.000000  0   -2337457.231  -5252416.976   3785803.756
10 0 59515   4782.000000  0   -2285345.176  -4675972.495   4503134.085
10 0 59515   4902.000000  0   -2182497.319  -4019157.173   5141198.216
10 0 59515   5022.000000  0   -2029427.585  -3294359.815   5688797.362
10 0 59515   5142.000000  0   -1827754.053  -2515130.534   6136334.979
10 0 59515   5262.000000  0   -1580185.208  -1695921.384   6475979.195
10 0 59515   5382.000000  0   -1290483.794   -851814.504   6701794.506
10 0 59515   5502.000000  0    -963409.351      1758.909   6809838.998
10 0 59515   5622.000000  0    -604640.330    849300.179   6798227.943
10 0 59515   5742.000000  0    -220675.436   1675523.942   6667165.504
10 0 59515   5862.000000  0     181284.125   2465633.661   6418941.375
10 0 59515   5982.000000  0     593469.215   3205586.469   6057892.785
10 0 59515   6102.000000  0    1007691.425   3882343.969   5590333.607
10 0 59515   6222.000000  0    1415504.075   4484105.725   5024449.615
10 0 59515   6342.000000  0    1808372.992   5000521.068   4370161.139
10 0 59515   6462.000000  0    2177853.774   5422874.072   3638953.530
10 0 59515   6582.000000  0    2515772.579   5744238.393   2843680.231
10 0 59515   6702.000000  0    2814404.909   5959601.959   1998336.344
10 0 59515   6822.000000  0    3066649.402   6065950.984   1117807.055
10 0 59515   6942.000000  0    3266190.166   6062313.349    217599.076
10 0 59515   7062.000000  0    3407644.834   5949761.723   -686439.984
10 0 59515   7182.000000  0    3486695.186   5731374.901  -1578409.115
10 0 59515   7302.000000  0    3500195.985   5412159.409  -2442641.150
10 0 59515   7422.000000  0    3446260.098   4998932.983  -3263984.826
10 0 59515   7542.000000  0    3324316.568   4500172.514  -4028074.531
10 0 59515   7662.000000  0    3135141.295   3925832.118  -4721580.852
10 0 59515   7782.000000  0    2880860.508   3287137.326  -5332439.517
10 0 59515   7902.000000  0    2564927.405   2596358.668  -5850054.188
10 0 59515   8022.000000  0    2192072.940   1866571.020  -6265470.451
10 0 59515   8142.000000  0    1768231.728   1111403.992  -6571519.031
10 0 59515   8262.000000  0    1300446.622    344788.839  -6762927.519
10 0 59515   8382.000000  0     796751.985   -419294.238  -6836402.947
10 0 59515   8502.000000  0     266036.293  -1167066.354  -6790681.914
10 0 59515   8622.000000  0    -282111.099  -1885191.672  -6626548.279
10 0 59515   8742.000000  0    -837568.146  -2561008.369  -6346822.136
10 0 59515   8862.000000  0   -1389862.687  -3182748.674  -5956317.593
10 0 59515   8982.000000  0   -1928364.847  -3739741.976  -5461767.900
10 0 59515   9102.000000  0   -2442487.578  -4222599.272  -4871721.313
10 0 59515   9222.000000  0   -2921893.493  -4623377.182  -4196405.444
10 0 59515   9342.000000  0   -3356702.791  -4935715.732  -3447559.660
10 0 59515   9462.000000  0   -3737697.558  -5154947.411  -2638239.259
10 0 59515   9582.000000  0   -4056519.136  -5278175.192  -1782593.046
10 0 59515   9702.000000  0   -4305853.164  -5304316.549   -895617.087
10 0 59515   9822.000000  0   -4479597.039  -5234111.823      7110.989
10 0 59515   9942.000000  0   -4573005.179  -5070095.987    909711.721
10 0 59515  10062.000000  0   -4582808.304  -4816533.664   1796292.038
10 0 59515  10182.000000  0   -4507302.461  -4479318.004   2651234.785
10 0 59515  10302.000000  0   -4346406.027  -4065837.109   3459482.044
10 0 59515  10422.000000  0   -4101683.935  -3584811.810   4206806.989
10 0 59515  10542.000000  0   -3776337.630  -3046108.160   4880069.020
10 0 59515  10662.000000  0   -3375161.538  -2460529.883   5467444.811
10 0 59515  10782.000000  0   -2904468.949  -1839598.010   5958633.191
10 0 59515  10902.000000  0   -2371988.316  -1195321.359   6345032.530
10 0 59515  11022.000000  0   -1786731.654   -539960.664   6619887.149
10 0 59515  11142.000000  0   -1158836.750    114207.129   6778398.301
10 0 59515  11262.000000  0    -499390.061    755117.321   6817801.050
10 0 59515  11382.000000  0     179768.739   1371139.094   6737409.990
10 0 59515  11502.000000  0     866258.932   1951286.396   6538630.709
10 0 59515  11622.000000  0    1547384.065   2485413.992   6224936.076
10 0 59515  11742.000000  0    2210365.779   2964394.857   5801809.105
10 0 59515  11862.000000  0    2842583.673   3380278.384   5276653.767
10 0 59515  11982.000000  0    3431818.372   3726426.578   4658671.560
10 0 59515  12102.000000  0    3966490.257   3997623.153   3958703.938
10 0 59515  12222.000000  0    4435890.532   4190156.526   3189048.744
10 0 59515  12342.000000  0    4830403.697   4301873.572   2363243.797
10 0 59515  12462.000000  0    5141707.704   4332200.174   1495826.419
10 0 59515  12582.000000  0    5362953.571   4282130.639    602073.098
10 0 59515  12702.000000  0    5488916.302   4154184.183   -302277.693
10 0 59515  12822.000000  0    5516112.666   3952330.013  -1201311.901
10 0 59515  12942.000000  0    5442884.339   3681883.028  -2079228.195
10 0 59515  13062.000000  0    5269443.950   3349372.592  -2920622.748
10 0 59515  13182.000000  0    4997883.568   2962389.148  -3710763.610
10 0 59515  13302.000000  0    4632146.473   2529413.083  -4435850.662
10 0 59515  13422.000000  0    4177961.573   2059627.848  -5083255.309
10 0 59515  13542.000000  0    3642744.509   1562724.058  -5641733.634
10 0 59515  13662.000000  0    3035468.366   1048699.989  -6101612.704
10 0 59515  13782.000000  0    2366506.210    527661.786  -6454947.582
10 0 59515  13902.000000  0    1647450.026      9627.728  -6695646.274
10 0 59515  14022.000000  0     890910.702   -495660.115  -6819564.965
10 0 59515  14142.000000  0     110298.352   -978915.234  -6824572.491
10 0 59515  14262.000000  0    -680410.681  -1431472.555  -6710581.092
10 0 59515  14382.000000  0   -1466917.285  -1845439.283  -6479548.340
10 0 59515  14502.000000  0   -2234852.486  -2213830.214  -6135447.736
10 0 59515  14622.000000  0   -2970034.143  -2530684.170  -5684207.051
10 0 59515  14742.000000  0   -3658724.897  -2791160.979  -5133617.586
10 0 59515  14862.000000  0   -4287889.914  -2991618.105  -4493211.871
10 0 59515  14982.000000  0   -4845446.898  -3129663.634  -3774109.021
10 0 59515  15102.000000  0   -5320504.006  -3204184.750  -2988831.162
10 0 59515  15222.000000  0   -5703581.079  -3215351.011  -2151091.765
10 0 59515  15342.000000  0   -5986807.690  -3164591.354  -1275558.530
10 0 59515  15462.000000  0   -6164093.077  -3054545.229   -377595.579
10 0 59515  15582.000000  0   -6231263.184  -2888988.187    527010.737
10 0 59515  15702.000000  0   -6186161.257  -2672733.977   1422336.785
10 0 59515  15822.000000  0   -6028707.091  -2411514.836   2292612.246
10 0 59515  15942.000000  0   -5760912.802  -2111842.733   3122506.591
10 0 59515  16062.000000  0   -5386858.512  -1780856.577   3897406.646
10 0 59515  16182.000000  0   -4912623.975  -1426157.679   4603680.714
10 0 59515  16302.000000  0   -4346180.621  -1055638.643   5228919.070
10 0 59515  16422.000000  0   -3697249.862   -677311.232   5762150.260
99
